Ephemeris / PORT_LOGIN Sun Apr 13 02:36:26 2014 Pasadena, USA    / Horizons
*******************************************************************************
Target body name: 1917 Cuyo (1968 AA)             {source: JPL#216}
Center body name: Earth (399)                     {source: DE-0431LE-0431}
Center-site name: GEOCENTRIC
*******************************************************************************
Start time      : A.D. 2014-Apr-13 00:00:00.0000 UT
Stop  time      : A.D. 2014-Apr-15 00:00:00.0000 UT
Step-size       : 1 minutes
*******************************************************************************
Target pole/equ : No model available
Target radii    : 2.8 km
Center geodetic : 0.00000000,0.00000000,0.0000000 {E-lon(deg),Lat(deg),Alt(km)}
Center cylindric: 0.00000000,0.00000000,0.0000000 {E-lon(deg),Dxy(km),Dz(km)}
Center pole/equ : High-precision EOP model        {East-longitude +}
Center radii    : 6378.1 x 6378.1 x 6356.8 km     {Equator, meridian, pole}
Target primary  : Sun
Vis. interferer : MOON (R_eq= 1737.400) km        {source: DE-0431LE-0431}
Rel. light bend : Sun, EARTH                      {source: DE-0431LE-0431}
Rel. lght bnd GM: 1.3271E+11, 3.9860E+05 km^3/s^2
Small-body perts: Yes                             {source: SB431-BIG16}
Atmos refraction: NO (AIRLESS)
RA format       : DEG
Time format     : BOTH
EOP file        : eop.140411.p140703
EOP coverage    : DATA-BASED 1962-JAN-20 TO 2014-APR-11. PREDICTS-> 2014-JUL-02
Units conversion: 1 au= 149597870.700 km, c= 299792.458 km/s, 1 day= 86400.0 s
Table cut-offs 1: Elevation (-90.0deg=NO ),Airmass (>38.000=NO), Daylight (NO )
Table cut-offs 2: Solar Elongation (  0.0,180.0=NO ),Local Hour Angle( 0.0=NO )
Table format    : Comma Separated Values (spreadsheet)
*******************************************************************************
Initial FK5/J2000.0 heliocentric ecliptic osculating elements (au, days, deg.):
  EPOCH=  2454594.5 ! 2008-May-08.00 (CT)          Residual RMS= .44192
   EC= .5040974162177192   QR= 1.066632033835477   TP= 2454730.8388136649
   OM= 188.3622867865763   W=  194.3466122236821   IN= 23.93405219636773
Asteroid physical parameters (km, seconds, rotational period in hours):
   GM= n.a.                RAD= 2.85               ROTPER= 2.689
   H= 13.9                 G= .150                 B-V= n.a.
                           ALBEDO= n.a.            STYP= Sl
*************************************************************************************************
 Date__(UT)__HR:MN:SS, Date_________JDUT, , ,R.A._(ICRF/J2000.0), DEC_(ICRF/J2000.0),   1-way_LT,
*************************************************************************************************
$$SOE
 2014-Apr-13 20:18:00, 2456761.345833333, , ,264.4072440,  3.0942651,  16.213634,
 2014-Apr-13 20:19:00, 2456761.346527778, , ,264.4072760,  3.0944217,  16.213548,
 2014-Apr-13 20:20:00, 2456761.347222222, , ,264.4073080,  3.0945782,  16.213463,
 2014-Apr-13 20:21:00, 2456761.347916667, , ,264.4073399,  3.0947347,  16.213377,
 2014-Apr-13 20:22:00, 2456761.348611111, , ,264.4073719,  3.0948913,  16.213292,
 2014-Apr-13 20:23:00, 2456761.349305556, , ,264.4074038,  3.0950478,  16.213206,
 2014-Apr-13 20:24:00, 2456761.350000000, , ,264.4074357,  3.0952044,  16.213121,
 2014-Apr-13 20:25:00, 2456761.350694444, , ,264.4074677,  3.0953609,  16.213036,
 2014-Apr-13 20:26:00, 2456761.351388889, , ,264.4074996,  3.0955175,  16.212950,
 2014-Apr-13 20:27:00, 2456761.352083333, , ,264.4075315,  3.0956740,  16.212865,
 2014-Apr-13 20:28:00, 2456761.352777778, , ,264.4075635,  3.0958306,  16.212779,
 2014-Apr-13 20:29:00, 2456761.353472222, , ,264.4075954,  3.0959871,  16.212694,
 2014-Apr-13 20:30:00, 2456761.354166667, , ,264.4076273,  3.0961437,  16.212608,
 2014-Apr-13 20:31:00, 2456761.354861111, , ,264.4076592,  3.0963002,  16.212523,
 2014-Apr-13 20:32:00, 2456761.355555556, , ,264.4076912,  3.0964568,  16.212437,
 2014-Apr-13 20:33:00, 2456761.356250000, , ,264.4077231,  3.0966133,  16.212352,
 2014-Apr-13 20:34:00, 2456761.356944445, , ,264.4077550,  3.0967699,  16.212266,
 2014-Apr-13 20:35:00, 2456761.357638889, , ,264.4077869,  3.0969264,  16.212181,
 2014-Apr-13 20:36:00, 2456761.358333333, , ,264.4078188,  3.0970830,  16.212095,
 2014-Apr-13 20:37:00, 2456761.359027778, , ,264.4078507,  3.0972396,  16.212010,
 2014-Apr-13 20:38:00, 2456761.359722222, , ,264.4078826,  3.0973961,  16.211924,
 2014-Apr-13 20:39:00, 2456761.360416667, , ,264.4079145,  3.0975527,  16.211839,
 2014-Apr-13 20:40:00, 2456761.361111111, , ,264.4079464,  3.0977092,  16.211753,
 2014-Apr-13 20:41:00, 2456761.361805555, , ,264.4079783,  3.0978658,  16.211668,
 2014-Apr-13 20:42:00, 2456761.362500000, , ,264.4080102,  3.0980224,  16.211582,
 2014-Apr-13 20:43:00, 2456761.363194444, , ,264.4080421,  3.0981789,  16.211497,
 2014-Apr-13 20:44:00, 2456761.363888889, , ,264.4080739,  3.0983355,  16.211411,
 2014-Apr-13 20:45:00, 2456761.364583333, , ,264.4081058,  3.0984920,  16.211326,
 2014-Apr-13 20:46:00, 2456761.365277778, , ,264.4081377,  3.0986486,  16.211240,
 2014-Apr-13 20:47:00, 2456761.365972222, , ,264.4081696,  3.0988052,  16.211155,
 2014-Apr-13 20:48:00, 2456761.366666667, , ,264.4082014,  3.0989617,  16.211069,
 2014-Apr-13 20:49:00, 2456761.367361111, , ,264.4082333,  3.0991183,  16.210984,
 2014-Apr-13 20:50:00, 2456761.368055556, , ,264.4082651,  3.0992749,  16.210898,
 2014-Apr-13 20:51:00, 2456761.368750000, , ,264.4082970,  3.0994315,  16.210813,
 2014-Apr-13 20:52:00, 2456761.369444444, , ,264.4083289,  3.0995880,  16.210728,
 2014-Apr-13 20:53:00, 2456761.370138889, , ,264.4083607,  3.0997446,  16.210642,
 2014-Apr-13 20:54:00, 2456761.370833333, , ,264.4083926,  3.0999012,  16.210557,
 2014-Apr-13 20:55:00, 2456761.371527778, , ,264.4084244,  3.1000577,  16.210471,
 2014-Apr-13 20:56:00, 2456761.372222222, , ,264.4084563,  3.1002143,  16.210386,
 2014-Apr-13 20:57:00, 2456761.372916667, , ,264.4084881,  3.1003709,  16.210300,
 2014-Apr-13 20:58:00, 2456761.373611111, , ,264.4085199,  3.1005275,  16.210215,
 2014-Apr-13 20:59:00, 2456761.374305556, , ,264.4085518,  3.1006840,  16.210129,
 2014-Apr-13 21:00:00, 2456761.375000000, , ,264.4085836,  3.1008406,  16.210044,
 2014-Apr-13 21:01:00, 2456761.375694444, , ,264.4086154,  3.1009972,  16.209958,
 2014-Apr-13 21:02:00, 2456761.376388889, , ,264.4086473,  3.1011538,  16.209873,
 2014-Apr-13 21:03:00, 2456761.377083333, , ,264.4086791,  3.1013104,  16.209787,
 2014-Apr-13 21:04:00, 2456761.377777778, , ,264.4087109,  3.1014670,  16.209702,
 2014-Apr-13 21:05:00, 2456761.378472222, , ,264.4087427,  3.1016235,  16.209616,
 2014-Apr-13 21:06:00, 2456761.379166667, , ,264.4087745,  3.1017801,  16.209531,
 2014-Apr-13 21:07:00, 2456761.379861111, , ,264.4088063,  3.1019367,  16.209445,
 2014-Apr-13 21:08:00, 2456761.380555556, , ,264.4088381,  3.1020933,  16.209360,
 2014-Apr-13 21:09:00, 2456761.381250000, , ,264.4088699,  3.1022499,  16.209275,
 2014-Apr-13 21:10:00, 2456761.381944444, , ,264.4089017,  3.1024065,  16.209189,
 2014-Apr-13 21:11:00, 2456761.382638889, , ,264.4089335,  3.1025631,  16.209104,
 2014-Apr-13 21:12:00, 2456761.383333333, , ,264.4089653,  3.1027196,  16.209018,
 2014-Apr-13 21:13:00, 2456761.384027778, , ,264.4089971,  3.1028762,  16.208933,
 2014-Apr-13 21:14:00, 2456761.384722222, , ,264.4090289,  3.1030328,  16.208847,
 2014-Apr-13 21:15:00, 2456761.385416667, , ,264.4090607,  3.1031894,  16.208762,
 2014-Apr-13 21:16:00, 2456761.386111111, , ,264.4090925,  3.1033460,  16.208676,
 2014-Apr-13 21:17:00, 2456761.386805556, , ,264.4091243,  3.1035026,  16.208591,
 2014-Apr-13 21:18:00, 2456761.387500000, , ,264.4091560,  3.1036592,  16.208505,
 2014-Apr-13 21:19:00, 2456761.388194445, , ,264.4091878,  3.1038158,  16.208420,
 2014-Apr-13 21:20:00, 2456761.388888889, , ,264.4092196,  3.1039724,  16.208334,
 2014-Apr-13 21:21:00, 2456761.389583333, , ,264.4092513,  3.1041290,  16.208249,
 2014-Apr-13 21:22:00, 2456761.390277778, , ,264.4092831,  3.1042856,  16.208164,
 2014-Apr-13 21:23:00, 2456761.390972222, , ,264.4093149,  3.1044422,  16.208078,
 2014-Apr-13 21:24:00, 2456761.391666667, , ,264.4093466,  3.1045988,  16.207993,
 2014-Apr-13 21:25:00, 2456761.392361111, , ,264.4093784,  3.1047554,  16.207907,
 2014-Apr-13 21:26:00, 2456761.393055555, , ,264.4094101,  3.1049120,  16.207822,
 2014-Apr-13 21:27:00, 2456761.393750000, , ,264.4094419,  3.1050686,  16.207736,
 2014-Apr-13 21:28:00, 2456761.394444444, , ,264.4094736,  3.1052252,  16.207651,
 2014-Apr-13 21:29:00, 2456761.395138889, , ,264.4095054,  3.1053818,  16.207565,
 2014-Apr-13 21:30:00, 2456761.395833333, , ,264.4095371,  3.1055384,  16.207480,
 2014-Apr-13 21:31:00, 2456761.396527778, , ,264.4095688,  3.1056950,  16.207394,
 2014-Apr-13 21:32:00, 2456761.397222222, , ,264.4096006,  3.1058516,  16.207309,
 2014-Apr-13 21:33:00, 2456761.397916667, , ,264.4096323,  3.1060082,  16.207223,
 2014-Apr-13 21:34:00, 2456761.398611111, , ,264.4096640,  3.1061649,  16.207138,
 2014-Apr-13 21:35:00, 2456761.399305556, , ,264.4096958,  3.1063215,  16.207053,
 2014-Apr-13 21:36:00, 2456761.400000000, , ,264.4097275,  3.1064781,  16.206967,
 2014-Apr-13 21:37:00, 2456761.400694444, , ,264.4097592,  3.1066347,  16.206882,
 2014-Apr-13 21:38:00, 2456761.401388889, , ,264.4097909,  3.1067913,  16.206796,
 2014-Apr-13 21:39:00, 2456761.402083333, , ,264.4098226,  3.1069479,  16.206711,
 2014-Apr-13 21:40:00, 2456761.402777778, , ,264.4098543,  3.1071045,  16.206625,
 2014-Apr-13 21:41:00, 2456761.403472222, , ,264.4098860,  3.1072612,  16.206540,
 2014-Apr-13 21:42:00, 2456761.404166667, , ,264.4099177,  3.1074178,  16.206454,
 2014-Apr-13 21:43:00, 2456761.404861111, , ,264.4099494,  3.1075744,  16.206369,
 2014-Apr-13 21:44:00, 2456761.405555556, , ,264.4099811,  3.1077310,  16.206284,
$$EOE
*************************************************************************************************